[
    {
        "OBJECT_NAME": "BEIDOU-2 G7",
        "OBJECT_ID": "2016-037A",
        "EPOCH": "2026-07-09T15:53:15.184320",
        "MEAN_MOTION": 1.00264599,
        "ECCENTRICITY": 0.00060738,
        "INCLINATION": 1.7726,
        "RA_OF_ASC_NODE": 69.5133,
        "ARG_OF_PERICENTER": 6.8145,
        "MEAN_ANOMALY": 199.9992,
        "EPHEMERIS_TYPE": 0,
        "CLASSIFICATION_TYPE": "U",
        "NORAD_CAT_ID": 41586,
        "ELEMENT_SET_NO": 999,
        "REV_AT_EPOCH": 711,
        "BSTAR": 0,
        "MEAN_MOTION_DOT": -3.41e-06,
        "MEAN_MOTION_DDOT": 0
    },
    {
        "OBJECT_NAME": "BEIDOU-3 M1",
        "OBJECT_ID": "2017-069A",
        "EPOCH": "2026-07-09T03:33:28.229760",
        "MEAN_MOTION": 1.86231366,
        "ECCENTRICITY": 0.00094138,
        "INCLINATION": 56.7103,
        "RA_OF_ASC_NODE": 62.3623,
        "ARG_OF_PERICENTER": 327.9013,
        "MEAN_ANOMALY": 32.1028,
        "EPHEMERIS_TYPE": 0,
        "CLASSIFICATION_TYPE": "U",
        "NORAD_CAT_ID": 43001,
        "ELEMENT_SET_NO": 999,
        "REV_AT_EPOCH": 5901,
        "BSTAR": 0,
        "MEAN_MOTION_DOT": -4.6e-07,
        "MEAN_MOTION_DDOT": 0
    },
    {
        "OBJECT_NAME": "BEIDOU-3 M2",
        "OBJECT_ID": "2017-069B",
        "EPOCH": "2026-07-06T22:32:30.327360",
        "MEAN_MOTION": 1.86230659,
        "ECCENTRICITY": 0.0008338,
        "INCLINATION": 56.7079,
        "RA_OF_ASC_NODE": 62.4701,
        "ARG_OF_PERICENTER": 357.4299,
        "MEAN_ANOMALY": 2.6295,
        "EPHEMERIS_TYPE": 0,
        "CLASSIFICATION_TYPE": "U",
        "NORAD_CAT_ID": 43002,
        "ELEMENT_SET_NO": 999,
        "REV_AT_EPOCH": 5896,
        "BSTAR": 0,
        "MEAN_MOTION_DOT": -4.2e-07,
        "MEAN_MOTION_DDOT": 0
    },
    {
        "OBJECT_NAME": "BEIDOU-3 M7",
        "OBJECT_ID": "2018-003A",
        "EPOCH": "2026-07-08T07:00:28.304928",
        "MEAN_MOTION": 1.86228392,
        "ECCENTRICITY": 0.00044807,
        "INCLINATION": 54.3078,
        "RA_OF_ASC_NODE": 301.5795,
        "ARG_OF_PERICENTER": 98.0554,
        "MEAN_ANOMALY": 262.0167,
        "EPHEMERIS_TYPE": 0,
        "CLASSIFICATION_TYPE": "U",
        "NORAD_CAT_ID": 43107,
        "ELEMENT_SET_NO": 999,
        "REV_AT_EPOCH": 5774,
        "BSTAR": 0,
        "MEAN_MOTION_DOT": -6.6e-07,
        "MEAN_MOTION_DDOT": 0
    },
    {
        "OBJECT_NAME": "BEIDOU-3 M8",
        "OBJECT_ID": "2018-003B",
        "EPOCH": "2026-07-08T18:33:40.459680",
        "MEAN_MOTION": 1.8623127,
        "ECCENTRICITY": 0.00029693,
        "INCLINATION": 54.3003,
        "RA_OF_ASC_NODE": 301.5443,
        "ARG_OF_PERICENTER": 259.3188,
        "MEAN_ANOMALY": 100.6682,
        "EPHEMERIS_TYPE": 0,
        "CLASSIFICATION_TYPE": "U",
        "NORAD_CAT_ID": 43108,
        "ELEMENT_SET_NO": 999,
        "REV_AT_EPOCH": 5776,
        "BSTAR": 0,
        "MEAN_MOTION_DOT": -6.7e-07,
        "MEAN_MOTION_DDOT": 0
    },
    {
        "OBJECT_NAME": "BEIDOU-3 M4",
        "OBJECT_ID": "2018-018A",
        "EPOCH": "2026-07-09T05:11:48.610176",
        "MEAN_MOTION": 1.86231289,
        "ECCENTRICITY": 0.00074518,
        "INCLINATION": 56.6695,
        "RA_OF_ASC_NODE": 62.4232,
        "ARG_OF_PERICENTER": 27.0814,
        "MEAN_ANOMALY": 333.0189,
        "EPHEMERIS_TYPE": 0,
        "CLASSIFICATION_TYPE": "U",
        "NORAD_CAT_ID": 43207,
        "ELEMENT_SET_NO": 999,
        "REV_AT_EPOCH": 5715,
        "BSTAR": 0,
        "MEAN_MOTION_DOT": -4.7e-07,
        "MEAN_MOTION_DDOT": 0
    },
    {
        "OBJECT_NAME": "BEIDOU-3 M3",
        "OBJECT_ID": "2018-018B",
        "EPOCH": "2026-07-06T14:21:28.890720",
        "MEAN_MOTION": 1.86231254,
        "ECCENTRICITY": 0.00078802,
        "INCLINATION": 56.6666,
        "RA_OF_ASC_NODE": 62.5134,
        "ARG_OF_PERICENTER": 344.5989,
        "MEAN_ANOMALY": 15.4415,
        "EPHEMERIS_TYPE": 0,
        "CLASSIFICATION_TYPE": "U",
        "NORAD_CAT_ID": 43208,
        "ELEMENT_SET_NO": 999,
        "REV_AT_EPOCH": 5710,
        "BSTAR": 0,
        "MEAN_MOTION_DOT": -4.1e-07,
        "MEAN_MOTION_DDOT": 0
    },
    {
        "OBJECT_NAME": "BEIDOU-3 M9",
        "OBJECT_ID": "2018-029A",
        "EPOCH": "2026-07-08T10:14:58.765056",
        "MEAN_MOTION": 1.86228291,
        "ECCENTRICITY": 0.00010953,
        "INCLINATION": 54.1736,
        "RA_OF_ASC_NODE": 299.2068,
        "ARG_OF_PERICENTER": 182.3611,
        "MEAN_ANOMALY": 177.6623,
        "EPHEMERIS_TYPE": 0,
        "CLASSIFICATION_TYPE": "U",
        "NORAD_CAT_ID": 43245,
        "ELEMENT_SET_NO": 999,
        "REV_AT_EPOCH": 5629,
        "BSTAR": 0,
        "MEAN_MOTION_DOT": -6.3e-07,
        "MEAN_MOTION_DDOT": 0
    },
    {
        "OBJECT_NAME": "BEIDOU-3 M10",
        "OBJECT_ID": "2018-029B",
        "EPOCH": "2026-07-08T08:40:17.648832",
        "MEAN_MOTION": 1.86229516,
        "ECCENTRICITY": 0.00033385,
        "INCLINATION": 54.1715,
        "RA_OF_ASC_NODE": 299.235,
        "ARG_OF_PERICENTER": 36.6735,
        "MEAN_ANOMALY": 323.3733,
        "EPHEMERIS_TYPE": 0,
        "CLASSIFICATION_TYPE": "U",
        "NORAD_CAT_ID": 43246,
        "ELEMENT_SET_NO": 999,
        "REV_AT_EPOCH": 5627,
        "BSTAR": 0,
        "MEAN_MOTION_DOT": -6.3e-07,
        "MEAN_MOTION_DDOT": 0
    },
    {
        "OBJECT_NAME": "BEIDOU-2 IGSO-7",
        "OBJECT_ID": "2018-057A",
        "EPOCH": "2026-07-01T21:23:21.693984",
        "MEAN_MOTION": 1.00246939,
        "ECCENTRICITY": 0.01049468,
        "INCLINATION": 55.1981,
        "RA_OF_ASC_NODE": 162.9292,
        "ARG_OF_PERICENTER": 237.8611,
        "MEAN_ANOMALY": 308.6338,
        "EPHEMERIS_TYPE": 0,
        "CLASSIFICATION_TYPE": "U",
        "NORAD_CAT_ID": 43539,
        "ELEMENT_SET_NO": 999,
        "REV_AT_EPOCH": 2927,
        "BSTAR": 0,
        "MEAN_MOTION_DOT": -3.3e-07,
        "MEAN_MOTION_DDOT": 0
    },
    {
        "OBJECT_NAME": "BEIDOU-3 M5",
        "OBJECT_ID": "2018-062A",
        "EPOCH": "2026-07-08T14:02:48.675840",
        "MEAN_MOTION": 1.86228617,
        "ECCENTRICITY": 0.00057129,
        "INCLINATION": 54.0866,
        "RA_OF_ASC_NODE": 181.5769,
        "ARG_OF_PERICENTER": 292.3518,
        "MEAN_ANOMALY": 67.5967,
        "EPHEMERIS_TYPE": 0,
        "CLASSIFICATION_TYPE": "U",
        "NORAD_CAT_ID": 43581,
        "ELEMENT_SET_NO": 999,
        "REV_AT_EPOCH": 5403,
        "BSTAR": 0,
        "MEAN_MOTION_DOT": 1.21e-06,
        "MEAN_MOTION_DDOT": 0
    },
    {
        "OBJECT_NAME": "BEIDOU-3 M6",
        "OBJECT_ID": "2018-062B",
        "EPOCH": "2026-07-07T08:59:54.178368",
        "MEAN_MOTION": 1.86227975,
        "ECCENTRICITY": 0.00050882,
        "INCLINATION": 54.086,
        "RA_OF_ASC_NODE": 181.6071,
        "ARG_OF_PERICENTER": 9.1977,
        "MEAN_ANOMALY": 350.8186,
        "EPHEMERIS_TYPE": 0,
        "CLASSIFICATION_TYPE": "U",
        "NORAD_CAT_ID": 43582,
        "ELEMENT_SET_NO": 999,
        "REV_AT_EPOCH": 5401,
        "BSTAR": 0,
        "MEAN_MOTION_DOT": 1.19e-06,
        "MEAN_MOTION_DDOT": 0
    },
    {
        "OBJECT_NAME": "BEIDOU-3 M12",
        "OBJECT_ID": "2018-067A",
        "EPOCH": "2026-07-09T23:57:20.896128",
        "MEAN_MOTION": 1.86227772,
        "ECCENTRICITY": 0.00079059,
        "INCLINATION": 54.1817,
        "RA_OF_ASC_NODE": 180.2667,
        "ARG_OF_PERICENTER": 30.5943,
        "MEAN_ANOMALY": 329.4569,
        "EPHEMERIS_TYPE": 0,
        "CLASSIFICATION_TYPE": "U",
        "NORAD_CAT_ID": 43602,
        "ELEMENT_SET_NO": 999,
        "REV_AT_EPOCH": 5354,
        "BSTAR": 0,
        "MEAN_MOTION_DOT": 1.11e-06,
        "MEAN_MOTION_DDOT": 0
    }
]